IRIDIUM 39              
1 25042U 97069D   25220.87990314  .00000629  00000+0  15928-3 0  9990
2 25042  86.3952 188.5517 0019617 126.3001 234.0018 14.49270704456595
IRIDIUM 38              
1 25043U 97069E   25220.90954070  .00000432  00000+0  13591-3 0  9990
2 25043  86.3959 210.9775 0000678  35.1980 324.9262 14.38152492453531
IRIDIUM 42              
1 25077U 97077A   25220.91085523  .00000389  00000+0  12639-3 0  9998
2 25077  86.3953 217.2090 0001673  74.0209 286.1172 14.36384626448766
IRIDIUM 44              
1 25078U 97077B   25220.93145411  .00000422  00000+0  12703-3 0  9994
2 25078  86.3981 198.9969 0001903 140.8515 219.2822 14.40275853451293
IRIDIUM 45              
1 25104U 97082A   25220.88054021  .00027827  00000+0  94942-3 0  9993
2 25104  86.3576  22.2646 0114544 133.4031 227.6822 15.24029159460068
IRIDIUM 24              
1 25105U 97082B   25220.90593675  .00000460  00000+0  13374-3 0  9994
2 25105  86.3861  57.9251 0009251 262.9877  97.0271 14.42138584450818
IRIDIUM 51              
1 25262U 98018A   25220.88301718  .00042375  00000+0  84496-3 0  9994
2 25262  86.3805  29.6666 0081703  48.0522 312.7658 15.43048125455148
IRIDIUM 57              
1 25273U 98019B   25220.78527150  .00000307  00000+0  99142-4 0  9990
2 25273  86.3978 123.2336 0002083  85.2941 274.8493 14.35922390432334
